PROBA-1                 
1 26958U 01049B   26197.60656339  .00001011  00000+0  68721-4 0  9997
2 26958  97.9599 207.1684 0055675  25.1798 335.2124 15.07619063348056
CUTE-1 (CO-55)          
1 27844U 03031E   26197.47091366  .00000129  00000+0  74881-4 0  9996
2 27844  98.6744 205.6621 0010849  99.3803 260.8604 14.24352009195844
CUBESAT XI-IV (CO-57)   
1 27848U 03031J   26197.47409145  .00000105  00000+0  65297-4 0  9993
2 27848  98.6775 205.3542 0010587 115.9860 244.2410 14.23634953195546
APRIZESAT 4             
1 35684U 09041D   26197.18494482  .00000333  00000+0  46573-4 0  9992
2 35684  98.1404 273.0822 0042291 226.2484 133.5226 14.83914429915668
APRIZESAT 3             
1 35686U 09041F   26197.38933364  .00000676  00000+0  63592-4 0  9993
2 35686  98.2102 352.0190 0060760 331.9541  27.8409 14.96312768920746
PROBA-2                 
1 36037U 09059B   26197.46999519  .00000054  00000+0  23025-4 0  9993
2 36037  98.2459  20.4183 0013098 184.7375 175.3700 14.54873910885783
APRIZESAT 5             
1 37792U 11044E   26197.39483295  .00000379  00000+0  55338-4 0  9992
2 37792  98.2449 131.2646 0050680 268.7277  90.8128 14.81128622803113
APRIZESAT 6             
1 37793U 11044F   26197.28902138  .00000336  00000+0  55005-4 0  9997
2 37793  98.2336 108.3804 0042959 354.7759 121.7132 14.76957659801448
PROBA-V                 
1 39159U 13021A   26197.49810291  .00000011  00000+0  22911-4 0  9993
2 39159  98.3606 174.6608 0005214  56.9313 303.2366 14.23603527685287
APRIZESAT 7             
1 39416U 13066A   26197.60385233  .00000597  00000+0  64412-4 0  9995
2 39416  97.7723 150.4042 0037281 112.8268 247.6895 14.91620836685612
APRIZESAT 8             
1 39425U 13066K   26197.39971926  .00000360  00000+0  44928-4 0  9999
2 39425  97.8230 144.4630 0045593 187.8935 172.1569 14.87697448684011
BUGSAT-1 (TITA)         
1 40014U 14033E   26197.61118623  .00003085  00000+0  16348-3 0  9993
2 40014  98.0435 291.8872 0028924  81.1607 279.2897 15.15889625660292
SAUDISAT 4              
1 40016U 14033G   26197.40203649  .00000216  00000+0  35268-4 0  9991
2 40016  97.7619 342.5326 0044156 340.1095  19.8394 14.79576218650396
APRIZESAT 9             
1 40018U 14033J   26197.32525778  .00000298  00000+0  51155-4 0  9997
2 40018  97.9096 329.8172 0067464 106.3797 254.4843 14.74253373647856
APRIZESAT 10            
1 40019U 14033K   26197.58239497  .00000285  00000+0  52545-4 0  9996
2 40019  97.9684 323.8916 0078844 178.9189 181.2203 14.70911836646570
TECHDEMOSAT-1 (TDS-1)   
1 40076U 14037H   26197.44647108  .00003895  00000+0  22069-3 0  9997
2 40076  98.3827 192.5707 0007023 154.6869 205.4705 15.13690160652657
TECHNOSAT               
1 42829U 17042E   26197.43622444  .00001542  00000+0  11220-3 0  9993
2 42829  97.4319 353.9887 0017314 359.5045   0.6162 15.05115320491103
FLYING LAPTOP           
1 42831U 17042G   26197.64636644  .00002096  00000+0  16671-3 0  9996
2 42831  97.4811 352.0719 0019651  27.8785 332.3488 15.01319059490879
HAWK-A                  
1 43765U 18099H   26197.61638915  .00003776  00000+0  15182-3 0  9998
2 43765  97.3895 249.4721 0034888 178.9967 181.1347 15.24975549417586
HAWK-B                  
1 43794U 18099AN  26197.60758540  .00003321  00000+0  14187-3 0  9996
2 43794  97.3943 248.8164 0031532 197.0629 162.9551 15.23124761417514
HAWK-C                  
1 43799U 18099AT  26197.59119182  .00004601  00000+0  16469-3 0  9999
2 43799  97.3871 250.5058 0040460 178.8979 181.2358 15.28503883418405
SALSAT                  
1 46495U 20068K   26197.24901140  .00003822  00000+0  13369-3 0  9999
2 46495  97.8856 202.0925 0009321 188.9749 171.1325 15.30180346319806
HAWK-2C                 
1 47502U 21006CT  26197.55558229  .00003639  00000+0  10940-3 0  9990
2 47502  97.2262 241.2836 0008679  97.0810 263.1421 15.34999327304007
HAWK-2A                 
1 47505U 21006CW  26197.16665786  .00004634  00000+0  13860-3 0  9997
2 47505  97.2304 241.5969 0008218 101.3926 258.8242 15.35017065303948
HAWK-2B                 
1 47508U 21006CZ  26197.55119786  .00004195  00000+0  12516-3 0  9996
2 47508  97.2175 240.2601 0008778  98.9072 261.3166 15.35147812304006
HAWK-3B                 
1 48931U 21059BE  26197.50073101  .00030374  00000+0  23387-3 0  9996
2 48931  97.6631  37.0342 0004633 193.4440 166.6700 15.71948524282452
HAWK-3C                 
1 48948U 21059BX  26197.50041456  .00031505  00000+0  24247-3 0  9995
2 48948  97.6747  42.7698 0004883 193.9249 166.1880 15.71949731282459
HAWK-3A                 
1 48957U 21059CG  26197.50030158  .00027309  00000+0  21045-3 0  9992
2 48957  97.6691  39.9509 0004837 196.2796 163.8311 15.71947171282457
HAWK-5C                 
1 52754U 22057Y   26197.44670913  .00011022  00000+0  18260-3 0  9993
2 52754  97.6619 359.0269 0002675 341.0919  19.0233 15.52353614230888
HAWK-5B                 
1 52756U 22057AA  26197.57544857  .00010591  00000+0  17553-3 0  9990
2 52756  97.6631 357.5180 0003346 325.9354  34.1683 15.52352649230906
